ONEWEB-0228             
1 48780U 21045P   24158.20236777  .00000100  00000+0  23188-3 0  9998
2 48780  87.9047  46.6356 0001977  82.6699 277.4656 13.15547565148033
